{
    "links": {
        "self": "http://www.neowsapp.com/rest/v1/neo/54054377?api_key=iIulBulltgU6a56xZRHN4H3l9WmuAYTsLGpBGhQ2"
    },
    "id": "54054377",
    "neo_reference_id": "54054377",
    "name": "(2020 RQ8)",
    "designation": "2020 RQ8",
    "nasa_jpl_url": "http://ssd.jpl.nasa.gov/sbdb.cgi?sstr=54054377",
    "absolute_magnitude_h": 25.117,
    "estimated_diameter": {
        "kilometers": {
            "estimated_diameter_min": 0.0251857551,
            "estimated_diameter_max": 0.0563170605
        },
        "meters": {
            "estimated_diameter_min": 25.1857551309,
            "estimated_diameter_max": 56.3170605375
        },
        "miles": {
            "estimated_diameter_min": 0.0156496979,
            "estimated_diameter_max": 0.0349937882
        },
        "feet": {
            "estimated_diameter_min": 82.6304328638,
            "estimated_diameter_max": 184.7672648937
        }
    },
    "is_potentially_hazardous_asteroid": false,
    "close_approach_data": [
        {
            "close_approach_date": "2020-09-16",
            "close_approach_date_full": "2020-Sep-16 20:33",
            "epoch_date_close_approach": 1600288380000,
            "relative_velocity": {
                "kilometers_per_second": "6.7316088277",
                "kilometers_per_hour": "24233.7917798595",
                "miles_per_hour": "15057.9357867688"
            },
            "miss_distance": {
                "astronomical": "0.0695780275",
                "lunar": "27.0658526975",
                "kilometers": "10408724.712801425",
                "miles": "6467681.626152665"
            },
            "orbiting_body": "Earth"
        },
        {
            "close_approach_date": "2111-07-28",
            "close_approach_date_full": "2111-Jul-28 16:03",
            "epoch_date_close_approach": 4467542580000,
            "relative_velocity": {
                "kilometers_per_second": "1.9224488184",
                "kilometers_per_hour": "6920.8157460896",
                "miles_per_hour": "4300.3257617855"
            },
            "miss_distance": {
                "astronomical": "1.8501542765",
                "lunar": "719.7100135585",
                "kilometers": "276779138.935791055",
                "miles": "171982581.996404359"
            },
            "orbiting_body": "Juptr"
        }
    ],
    "orbital_data": {
        "orbit_id": "3",
        "orbit_determination_date": "2020-09-25 06:31:58",
        "first_observation_date": "2020-09-06",
        "last_observation_date": "2020-09-25",
        "data_arc_in_days": 19,
        "observations_used": 34,
        "orbit_uncertainty": "7",
        "minimum_orbit_intersection": ".0601598",
        "jupiter_tisserand_invariant": "3.350",
        "epoch_osculation": "2459000.5",
        "eccentricity": ".5465961931295203",
        "semi_major_axis": "2.334875850442513",
        "inclination": "2.208897688349179",
        "ascending_node_longitude": "32.82528938213168",
        "orbital_period": "1303.149125173757",
        "perihelion_distance": "1.058641599160584",
        "perihelion_argument": "332.4443753946414",
        "aphelion_distance": "3.611110101724442",
        "perihelion_time": "2459117.874852550122",
        "mean_anomaly": "327.5747417530517",
        "mean_motion": ".2762538784285328",
        "equinox": "J2000",
        "orbit_class": {
            "orbit_class_type": "AMO",
            "orbit_class_description": "Near-Earth asteroid orbits similar to that of 1221 Amor",
            "orbit_class_range": "1.017 AU < q (perihelion) < 1.3 AU"
        }
    },
    "is_sentry_object": false
}